{
    "CCSDS_OMM_VERS": "3.0",
    "COMMENT": "GENERATED VIA SPACE-TRACK.ORG API",
    "CREATION_DATE": "2025-05-22T17:14:14",
    "ORIGINATOR": "18 SPCS",
    "OBJECT_NAME": "COSMOS 2527 (GLONASS)",
    "OBJECT_ID": "2018-053A",
    "CENTER_NAME": "EARTH",
    "REF_FRAME": "TEME",
    "TIME_SYSTEM": "UTC",
    "MEAN_ELEMENT_THEORY": "SGP4",
    "EPOCH": "2025-05-22T04:33:53.945280",
    "MEAN_MOTION": "2.13102129",
    "ECCENTRICITY": "0.00082360",
    "INCLINATION": "65.3640",
    "RA_OF_ASC_NODE": "86.9704",
    "ARG_OF_PERICENTER": "244.9002",
    "MEAN_ANOMALY": "114.9978",
    "EPHEMERIS_TYPE": "0",
    "CLASSIFICATION_TYPE": "U",
    "NORAD_CAT_ID": "43508",
    "ELEMENT_SET_NO": "999",
    "REV_AT_EPOCH": "5394",
    "BSTAR": "0.00000000000000",
    "MEAN_MOTION_DOT": "0.00000018",
    "MEAN_MOTION_DDOT": "0.0000000000000",
    "SEMIMAJOR_AXIS": "25508.014",
    "PERIOD": "675.732",
    "APOAPSIS": "19150.888",
    "PERIAPSIS": "19108.871",
    "OBJECT_TYPE": "PAYLOAD",
    "RCS_SIZE": "LARGE",
    "COUNTRY_CODE": "CIS",
    "LAUNCH_DATE": "2018-06-16",
    "SITE": "PKMTR",
    "DECAY_DATE": null,
    "FILE": "4736220",
    "GP_ID": "288144533",
    "TLE_LINE0": "0 COSMOS 2527 (GLONASS)",
    "TLE_LINE1": "1 43508U 18053A   25142.19020770  .00000018  00000-0  00000-0 0  9996",
    "TLE_LINE2": "2 43508  65.3640  86.9704 0008236 244.9002 114.9978  2.13102129 53941"
}